STARLINK-36357          
1 67963U 26038C   26164.26875388  .00020588  00000+0  63812-3 0  9991
2 67963  97.2854 173.9777 0000992  64.4956 295.6390 15.33453763 17881
STARLINK-36349          
1 67964U 26038D   26164.27147233  .00023086  00000+0  71501-3 0  9994
2 67964  97.2859 173.9745 0001186  70.4316 289.7055 15.33455230 17888
STARLINK-36806          
1 67965U 26038E   26164.26603487  .00017467  00000+0  54203-3 0  9998
2 67965  97.2843 173.9804 0001098  88.6813 271.4555 15.33450882 17884
STARLINK-36820          
1 67966U 26038F   26164.26331232  .00018208  00000+0  56465-3 0  9991
2 67966  97.2847 173.9848 0001243  91.0304 269.1082 15.33462941 17880
STARLINK-36819          
1 67967U 26038G   26163.99957115  .00008576  00000+0  26760-3 0  9997
2 67967  97.2840 173.7278 0001995 104.8992 255.2472 15.33451095 17842
STARLINK-36812          
1 67968U 26038H   26163.99685268  .00018329  00000+0  56843-3 0  9997
2 67968  97.2824 173.7353 0000751 130.1956 229.9352 15.33459745 17845
STARLINK-36709          
1 67969U 26038J   26163.99141775  .00027898  00000+0  86281-3 0  9998
2 67969  97.2823 173.7426 0001632  87.8841 272.2588 15.33462351 17845
STARLINK-36319          
1 67970U 26038K   26163.99413847  .00023522  00000+0  72840-3 0  9998
2 67970  97.2826 173.7372 0001530  90.1558 269.9860 15.33455661 17841
STARLINK-36710          
1 67971U 26038L   26163.98870188  .00021915  00000+0  67904-3 0  9992
2 67971  97.2827 173.7456 0001581  90.4340 269.7084 15.33450505 17842
STARLINK-36894          
1 67972U 26038M   26163.98598147  .00012714  00000+0  39543-3 0  9990
2 67972  97.2831 173.7485 0001425  97.8890 262.2514 15.33449313 17849
STARLINK-36900          
1 67973U 26038N   26164.30681974  .00032710  00000+0  10113-2 0  9998
2 67973  97.2847 174.0753 0001052 107.0368 253.0990 15.33439626 17896
STARLINK-36901          
1 67974U 26038P   26164.30953982  .00018121  00000+0  56217-3 0  9996
2 67974  97.2832 174.0706 0001068  46.9944 313.1388 15.33451544 17899
STARLINK-36883          
1 67975U 26038Q   26164.29594178  .00017476  00000+0  54212-3 0  9998
2 67975  97.2832 174.0882 0001387  76.9049 283.2348 15.33460881 17895
STARLINK-36880          
1 67976U 26038R   26164.30409819  .00023161  00000+0  71727-3 0  9996
2 67976  97.2848 174.0789 0001141 101.3416 258.7955 15.33457265 17891
STARLINK-36904          
1 67977U 26038S   26164.29868463  .00020085  00000+0  62259-3 0  9991
2 67977  97.2840 174.0885 0001732  98.9913 261.1526 15.33455220 17891
STARLINK-36364          
1 67978U 26038T   26164.02948523  .00022235  00000+0  68814-3 0  9991
2 67978  97.2825 173.8432 0001595  95.2399 264.9026 15.33485375 17851
STARLINK-36359          
1 67979U 26038U   26164.30137257  .00011274  00000+0  35122-3 0  9994
2 67979  97.2842 174.0854 0001553 100.6750 259.4668 15.33426117 17892
STARLINK-36882          
1 67980U 26038V   26164.29320844 -.00006721  00000+0 -20616-3 0  9995
2 67980  97.2862 174.0966 0001188  99.1482 260.9895 15.33426835 17894
STARLINK-36874          
1 67981U 26038W   26164.28778297  .00020873  00000+0  64653-3 0  9995
2 67981  97.2851 174.1039 0002141  91.4493 268.6995 15.33470164 17892
STARLINK-36879          
1 67982U 26038X   26164.28507756  .00016569  00000+0  51399-3 0  9996
2 67982  97.2831 174.1057 0001048  93.1684 266.9679 15.33471811 17897
STARLINK-36867          
1 67983U 26038Y   26164.27962951  .00018255  00000+0  56628-3 0  9992
2 67983  97.2822 174.1096 0001549 105.5517 254.5897 15.33452738 17892
STARLINK-36266          
1 67984U 26038Z   26164.28234888  .00021621  00000+0  67005-3 0  9997
2 67984  97.2825 174.1080 0001465 102.1324 258.0083 15.33448613 17898
STARLINK-36802          
1 67985U 26038AA  26164.27566932  .00020694  00000+0  64143-3 0  9994
2 67985  97.2854 174.8845 0001036  82.1440 277.9921 15.33452261 17948
STARLINK-36535          
1 67986U 26039A   26162.48438873  .00015293  00000+0  56378-3 0  9999
2 67986  42.9975 239.6137 0001197 268.4452  91.6263 15.27599580 16043
STARLINK-36744          
1 67987U 26039B   26162.48053961  .00014832  00000+0  54726-3 0  9994
2 67987  43.0046 239.5900 0000708 253.6078 106.4696 15.27589284 16044
STARLINK-36734          
1 67988U 26039C   26163.91519963  .00015631  00000+0  57575-3 0  9996
2 67988  43.0052 231.4608 0002231 269.6284  90.4312 15.27613725 16266
STARLINK-36957          
1 67989U 26039D   26163.91132997  .00015793  00000+0  58188-3 0  9995
2 67989  43.0060 231.4082 0001675 279.6665  80.3997 15.27597045 16260
STARLINK-36951          
1 67990U 26039E   26163.90747974  .00005314  00000+0  20237-3 0  9995
2 67990  42.9956 231.3817 0002055 269.2743  90.7873 15.27600474 16263
STARLINK-36941          
1 67991U 26039F   26163.90490920  .00015416  00000+0  56828-3 0  9991
2 67991  43.0048 231.3806 0002567 269.2031  90.8527 15.27596304 16267
STARLINK-36950          
1 67992U 26039G   26163.90104361  .00031017  00000+0  11316-2 0  9990
2 67992  43.0026 231.3428 0002990 262.9226  97.1285 15.27586173 16264
