OBJECT_NAME,OBJECT_ID,EPOCH,MEAN_MOTION,ECCENTRICITY,INCLINATION,RA_OF_ASC_NODE,ARG_OF_PERICENTER,MEAN_ANOMALY,EPHEMERIS_TYPE,CLASSIFICATION_TYPE,NORAD_CAT_ID,ELEMENT_SET_NO,REV_AT_EPOCH,BSTAR,MEAN_MOTION_DOT,MEAN_MOTION_DDOT
STARLINK-36357,2026-038C,2026-06-13T06:27:00.335232,15.33453763,.00009929,97.2854,173.9777,64.4956,295.6390,0,U,67963,999,1788,.63812138E-3,.20588E-3,0
STARLINK-36349,2026-038D,2026-06-13T06:30:55.209312,15.33455230,.00011869,97.2859,173.9745,70.4316,289.7055,0,U,67964,999,1788,.71500844E-3,.23086E-3,0
STARLINK-36806,2026-038E,2026-06-13T06:23:05.412768,15.33450882,.00010983,97.2843,173.9804,88.6813,271.4555,0,U,67965,999,1788,.54202733E-3,.17467E-3,0
STARLINK-36820,2026-038F,2026-06-13T06:19:10.184448,15.33462941,.00012435,97.2847,173.9848,91.0304,269.1082,0,U,67966,999,1788,.56464861E-3,.18208E-3,0
STARLINK-36819,2026-038G,2026-06-12T23:59:22.947360,15.33451095,.00019952,97.2840,173.7278,104.8992,255.2472,0,U,67967,999,1784,.26759554E-3,.8576E-4,0
STARLINK-36812,2026-038H,2026-06-12T23:55:28.071552,15.33459745,.00007515,97.2824,173.7353,130.1956,229.9352,0,U,67968,999,1784,.56842506E-3,.18329E-3,0
STARLINK-36709,2026-038J,2026-06-12T23:47:38.493600,15.33462351,.00016327,97.2823,173.7426,87.8841,272.2588,0,U,67969,999,1784,.86280829E-3,.27898E-3,0
STARLINK-36319,2026-038K,2026-06-12T23:51:33.563808,15.33455661,.00015304,97.2826,173.7372,90.1558,269.9860,0,U,67970,999,1784,.72840079E-3,.23522E-3,0
STARLINK-36710,2026-038L,2026-06-12T23:43:43.842432,15.33450505,.00015819,97.2827,173.7456,90.4340,269.7084,0,U,67971,999,1784,.67903668E-3,.21915E-3,0
STARLINK-36894,2026-038M,2026-06-12T23:39:48.799008,15.33449313,.00014257,97.2831,173.7485,97.8890,262.2514,0,U,67972,999,1784,.39542949E-3,.12714E-3,0
STARLINK-36900,2026-038N,2026-06-13T07:21:49.225536,15.33439626,.00010526,97.2847,174.0753,107.0368,253.0990,0,U,67973,999,1789,.10113232E-2,.3271E-3,0
STARLINK-36901,2026-038P,2026-06-13T07:25:44.240448,15.33451544,.00010688,97.2832,174.0706,46.9944,313.1388,0,U,67974,999,1789,.56217069E-3,.18121E-3,0
STARLINK-36883,2026-038Q,2026-06-13T07:06:09.369792,15.33460881,.0001387,97.2832,174.0882,76.9049,283.2348,0,U,67975,999,1789,.54211627E-3,.17476E-3,0
STARLINK-36880,2026-038R,2026-06-13T07:17:54.083616,15.33457265,.00011419,97.2848,174.0789,101.3416,258.7955,0,U,67976,999,1789,.71726677E-3,.23161E-3,0
STARLINK-36904,2026-038S,2026-06-13T07:10:06.352032,15.33455220,.0001732,97.2840,174.0885,98.9913,261.1526,0,U,67977,999,1789,.62258814E-3,.20085E-3,0
STARLINK-36364,2026-038T,2026-06-13T00:42:27.523872,15.33485375,.00015953,97.2825,173.8432,95.2399,264.9026,0,U,67978,999,1785,.68813771E-3,.22235E-3,0
STARLINK-36359,2026-038U,2026-06-13T07:13:58.590048,15.33426117,.00015532,97.2842,174.0854,100.6750,259.4668,0,U,67979,999,1789,.35121529E-3,.11274E-3,0
STARLINK-36882,2026-038V,2026-06-13T07:02:13.209216,15.33426835,.00011882,97.2862,174.0966,99.1482,260.9895,0,U,67980,999,1789,-.20615689E-3,-.6721E-4,0
STARLINK-36874,2026-038W,2026-06-13T06:54:24.448608,15.33470164,.00021419,97.2851,174.1039,91.4493,268.6995,0,U,67981,999,1789,.64653434E-3,.20873E-3,0
STARLINK-36879,2026-038X,2026-06-13T06:50:30.701184,15.33471811,.00010484,97.2831,174.1057,93.1684,266.9679,0,U,67982,999,1789,.51398679E-3,.16569E-3,0
STARLINK-36867,2026-038Y,2026-06-13T06:42:39.989664,15.33452738,.00015494,97.2822,174.1096,105.5517,254.5897,0,U,67983,999,1789,.56627691E-3,.18255E-3,0
STARLINK-36266,2026-038Z,2026-06-13T06:46:34.943232,15.33448613,.0001465,97.2825,174.1080,102.1324,258.0083,0,U,67984,999,1789,.67004981E-3,.21621E-3,0
STARLINK-36802,2026-038AA,2026-06-13T06:36:57.829248,15.33452261,.0001036,97.2854,174.8845,82.1440,277.9921,0,U,67985,999,1794,.64143344E-3,.20694E-3,0
STARLINK-36535,2026-039A,2026-06-11T11:37:31.186272,15.27599580,.0001197,42.9975,239.6137,268.4452,91.6263,0,U,67986,999,1604,.56378E-3,.15293E-3,0
STARLINK-36744,2026-039B,2026-06-11T11:31:58.622304,15.27589284,.0000708,43.0046,239.5900,253.6078,106.4696,0,U,67987,999,1604,.54726E-3,.14832E-3,0
STARLINK-36734,2026-039C,2026-06-12T21:57:53.248032,15.27613725,.00022318,43.0052,231.4608,269.6284,90.4312,0,U,67988,999,1626,.57575243E-3,.15631E-3,0
STARLINK-36957,2026-039D,2026-06-12T21:52:18.909408,15.27597045,.00016754,43.0060,231.4082,279.6665,80.3997,0,U,67989,999,1626,.58188325E-3,.15793E-3,0
STARLINK-36951,2026-039E,2026-06-12T21:46:46.249536,15.27600474,.00020557,42.9956,231.3817,269.2743,90.7873,0,U,67990,999,1626,.20236908E-3,.5314E-4,0
STARLINK-36941,2026-039F,2026-06-12T21:43:04.154880,15.27596304,.00025674,43.0048,231.3806,269.2031,90.8527,0,U,67991,999,1626,.56827504E-3,.15416E-3,0
STARLINK-36950,2026-039G,2026-06-12T21:37:30.167904,15.27586173,.00029906,43.0026,231.3428,262.9226,97.1285,0,U,67992,999,1626,.1131648E-2,.31017E-3,0
